[{"OBJECT_NAME":"STARLINK-11564 [DTC]","OBJECT_ID":"2025-027G","EPOCH":"2025-09-18T11:10:43.907808","MEAN_MOTION":15.70903916,"ECCENTRICITY":0.00020465,"INCLINATION":42.9988,"RA_OF_ASC_NODE":305.9644,"ARG_OF_PERICENTER":283.7568,"MEAN_ANOMALY":76.3072,"EPHEMERIS_TYPE":0,"CLASSIFICATION_TYPE":"U","NORAD_CAT_ID":62913,"ELEMENT_SET_NO":999,"REV_AT_EPOCH":3606,"BSTAR":0.0015931563,"MEAN_MOTION_DOT":0.00209783,"MEAN_MOTION_DDOT":0},{"OBJECT_NAME":"STARLINK-11566 [DTC]","OBJECT_ID":"2025-027H","EPOCH":"2025-09-18T03:40:34.847040","MEAN_MOTION":15.71014865,"ECCENTRICITY":0.00018404,"INCLINATION":42.9984,"RA_OF_ASC_NODE":307.9245,"ARG_OF_PERICENTER":140.0855,"MEAN_ANOMALY":220.0148,"EPHEMERIS_TYPE":0,"CLASSIFICATION_TYPE":"U","NORAD_CAT_ID":62914,"ELEMENT_SET_NO":999,"REV_AT_EPOCH":3605,"BSTAR":0.0014434333,"MEAN_MOTION_DOT":0.00190466,"MEAN_MOTION_DDOT":0},{"OBJECT_NAME":"STARLINK-11555 [DTC]","OBJECT_ID":"2025-027J","EPOCH":"2025-09-18T02:10:20.048448","MEAN_MOTION":15.70861195,"ECCENTRICITY":0.00022145,"INCLINATION":43.0004,"RA_OF_ASC_NODE":308.3131,"ARG_OF_PERICENTER":289.3339,"MEAN_ANOMALY":70.7289,"EPHEMERIS_TYPE":0,"CLASSIFICATION_TYPE":"U","NORAD_CAT_ID":62915,"ELEMENT_SET_NO":999,"REV_AT_EPOCH":3604,"BSTAR":0.0014020778,"MEAN_MOTION_DOT":0.00183656,"MEAN_MOTION_DDOT":0},{"OBJECT_NAME":"STARLINK-11430 [DTC]","OBJECT_ID":"2025-027K","EPOCH":"2025-09-18T11:33:40.129344","MEAN_MOTION":15.70828116,"ECCENTRICITY":0.00017842,"INCLINATION":42.9986,"RA_OF_ASC_NODE":306.0904,"ARG_OF_PERICENTER":274.2162,"MEAN_ANOMALY":85.8502,"EPHEMERIS_TYPE":0,"CLASSIFICATION_TYPE":"U","NORAD_CAT_ID":62916,"ELEMENT_SET_NO":999,"REV_AT_EPOCH":3610,"BSTAR":0.001528041,"MEAN_MOTION_DOT":0.00200319,"MEAN_MOTION_DDOT":0},{"OBJECT_NAME":"STARLINK-11560 [DTC]","OBJECT_ID":"2025-027L","EPOCH":"2025-09-18T04:41:33.443808","MEAN_MOTION":15.70927523,"ECCENTRICITY":0.00029254,"INCLINATION":42.9997,"RA_OF_ASC_NODE":307.366,"ARG_OF_PERICENTER":279.5384,"MEAN_ANOMALY":80.5153,"EPHEMERIS_TYPE":0,"CLASSIFICATION_TYPE":"U","NORAD_CAT_ID":62917,"ELEMENT_SET_NO":999,"REV_AT_EPOCH":3602,"BSTAR":0.0019153644,"MEAN_MOTION_DOT":0.00253923,"MEAN_MOTION_DDOT":0},{"OBJECT_NAME":"STARLINK-11562 [DTC]","OBJECT_ID":"2025-027M","EPOCH":"2025-09-18T04:26:15.897408","MEAN_MOTION":15.71321026,"ECCENTRICITY":0.0002975,"INCLINATION":42.999,"RA_OF_ASC_NODE":307.2803,"ARG_OF_PERICENTER":241.134,"MEAN_ANOMALY":118.923,"EPHEMERIS_TYPE":0,"CLASSIFICATION_TYPE":"U","NORAD_CAT_ID":62918,"ELEMENT_SET_NO":999,"REV_AT_EPOCH":3606,"BSTAR":0.0023008145,"MEAN_MOTION_DOT":0.00312414,"MEAN_MOTION_DDOT":0},{"OBJECT_NAME":"STARLINK-11457 [DTC]","OBJECT_ID":"2025-027N","EPOCH":"2025-09-18T13:20:20.626656","MEAN_MOTION":15.70867955,"ECCENTRICITY":0.00012185,"INCLINATION":42.9986,"RA_OF_ASC_NODE":304.8951,"ARG_OF_PERICENTER":350.4895,"MEAN_ANOMALY":9.5949,"EPHEMERIS_TYPE":0,"CLASSIFICATION_TYPE":"U","NORAD_CAT_ID":62919,"ELEMENT_SET_NO":999,"REV_AT_EPOCH":3608,"BSTAR":0.0011165192,"MEAN_MOTION_DOT":0.0014552,"MEAN_MOTION_DDOT":0},{"OBJECT_NAME":"STARLINK-32921","OBJECT_ID":"2025-027P","EPOCH":"2025-09-18T18:53:51.872352","MEAN_MOTION":15.27624159,"ECCENTRICITY":0.0001931,"INCLINATION":43.0053,"RA_OF_ASC_NODE":19.5513,"ARG_OF_PERICENTER":275.7707,"MEAN_ANOMALY":84.2924,"EPHEMERIS_TYPE":0,"CLASSIFICATION_TYPE":"U","NORAD_CAT_ID":62920,"ELEMENT_SET_NO":999,"REV_AT_EPOCH":3525,"BSTAR":0.00093918699,"MEAN_MOTION_DOT":0.00025707,"MEAN_MOTION_DDOT":0},{"OBJECT_NAME":"STARLINK-32917","OBJECT_ID":"2025-027Q","EPOCH":"2025-09-18T08:15:08.019648","MEAN_MOTION":15.27608684,"ECCENTRICITY":0.000224,"INCLINATION":43.0053,"RA_OF_ASC_NODE":22.2394,"ARG_OF_PERICENTER":288.6105,"MEAN_ANOMALY":71.4503,"EPHEMERIS_TYPE":0,"CLASSIFICATION_TYPE":"U","NORAD_CAT_ID":62921,"ELEMENT_SET_NO":999,"REV_AT_EPOCH":3518,"BSTAR":0.00080321716,"MEAN_MOTION_DOT":0.00021926,"MEAN_MOTION_DDOT":0},{"OBJECT_NAME":"STARLINK-32916","OBJECT_ID":"2025-027R","EPOCH":"2025-09-18T09:34:29.838144","MEAN_MOTION":15.27604865,"ECCENTRICITY":0.00019038,"INCLINATION":43.0052,"RA_OF_ASC_NODE":21.7886,"ARG_OF_PERICENTER":268.6288,"MEAN_ANOMALY":91.4346,"EPHEMERIS_TYPE":0,"CLASSIFICATION_TYPE":"U","NORAD_CAT_ID":62922,"ELEMENT_SET_NO":999,"REV_AT_EPOCH":3519,"BSTAR":0.0011244604,"MEAN_MOTION_DOT":0.00030834,"MEAN_MOTION_DDOT":0},{"OBJECT_NAME":"STARLINK-32905","OBJECT_ID":"2025-027S","EPOCH":"2025-09-18T08:31:47.727264","MEAN_MOTION":15.2762675,"ECCENTRICITY":0.00010363,"INCLINATION":43.0036,"RA_OF_ASC_NODE":22.3297,"ARG_OF_PERICENTER":187.2142,"MEAN_ANOMALY":172.8695,"EPHEMERIS_TYPE":0,"CLASSIFICATION_TYPE":"U","NORAD_CAT_ID":62923,"ELEMENT_SET_NO":999,"REV_AT_EPOCH":3518,"BSTAR":0.0008353764,"MEAN_MOTION_DOT":0.00022829,"MEAN_MOTION_DDOT":0},{"OBJECT_NAME":"STARLINK-32871","OBJECT_ID":"2025-027T","EPOCH":"2025-09-18T08:09:35.380512","MEAN_MOTION":15.27610795,"ECCENTRICITY":0.0004553,"INCLINATION":43.0054,"RA_OF_ASC_NODE":22.2069,"ARG_OF_PERICENTER":290.693,"MEAN_ANOMALY":69.3433,"EPHEMERIS_TYPE":0,"CLASSIFICATION_TYPE":"U","NORAD_CAT_ID":62924,"ELEMENT_SET_NO":999,"REV_AT_EPOCH":3518,"BSTAR":0.00082442418,"MEAN_MOTION_DOT":0.00022519,"MEAN_MOTION_DDOT":0},{"OBJECT_NAME":"STARLINK-32920","OBJECT_ID":"2025-027U","EPOCH":"2025-09-18T09:38:11.149152","MEAN_MOTION":15.27616555,"ECCENTRICITY":0.0001907,"INCLINATION":42.9988,"RA_OF_ASC_NODE":21.7979,"ARG_OF_PERICENTER":191.5157,"MEAN_ANOMALY":168.5651,"EPHEMERIS_TYPE":0,"CLASSIFICATION_TYPE":"U","NORAD_CAT_ID":62925,"ELEMENT_SET_NO":999,"REV_AT_EPOCH":3519,"BSTAR":0.00099422708,"MEAN_MOTION_DOT":0.00027229,"MEAN_MOTION_DDOT":0},{"OBJECT_NAME":"STARLINK-32922","OBJECT_ID":"2025-027V","EPOCH":"2025-09-18T08:26:14.166240","MEAN_MOTION":15.27628048,"ECCENTRICITY":0.00026721,"INCLINATION":42.9988,"RA_OF_ASC_NODE":22.2868,"ARG_OF_PERICENTER":143.0081,"MEAN_ANOMALY":217.0955,"EPHEMERIS_TYPE":0,"CLASSIFICATION_TYPE":"U","NORAD_CAT_ID":62926,"ELEMENT_SET_NO":999,"REV_AT_EPOCH":3518,"BSTAR":0.0010538489,"MEAN_MOTION_DOT":0.00028895,"MEAN_MOTION_DDOT":0},{"OBJECT_NAME":"STARLINK-32891","OBJECT_ID":"2025-027W","EPOCH":"2025-09-18T08:35:29.486688","MEAN_MOTION":15.27611553,"ECCENTRICITY":1.059e-5,"INCLINATION":42.995,"RA_OF_ASC_NODE":22.3428,"ARG_OF_PERICENTER":359.9213,"MEAN_ANOMALY":0.1639,"EPHEMERIS_TYPE":0,"CLASSIFICATION_TYPE":"U","NORAD_CAT_ID":62927,"ELEMENT_SET_NO":999,"REV_AT_EPOCH":3530,"BSTAR":0.00085576963,"MEAN_MOTION_DOT":0.00023384,"MEAN_MOTION_DDOT":0},{"OBJECT_NAME":"STARLINK-32728","OBJECT_ID":"2025-029A","EPOCH":"2025-09-18T09:48:32.856768","MEAN_MOTION":15.30252549,"ECCENTRICITY":9.846e-5,"INCLINATION":53.159,"RA_OF_ASC_NODE":310.3427,"ARG_OF_PERICENTER":96.5341,"MEAN_ANOMALY":263.5771,"EPHEMERIS_TYPE":0,"CLASSIFICATION_TYPE":"U","NORAD_CAT_ID":62948,"ELEMENT_SET_NO":999,"REV_AT_EPOCH":3501,"BSTAR":0.00097234401,"MEAN_MOTION_DOT":0.00028597,"MEAN_MOTION_DDOT":0}]
