STARLINK-11564 [DTC]    
1 62913U 25027G   25261.46578597  .00209783  00000+0  15932-2 0  9994
2 62913  42.9988 305.9644 0002046 283.7568  76.3072 15.70903916 36066
STARLINK-11566 [DTC]    
1 62914U 25027H   25261.15318110  .00190466  00000+0  14434-2 0  9997
2 62914  42.9984 307.9245 0001840 140.0855 220.0148 15.71014865 36055
STARLINK-11555 [DTC]    
1 62915U 25027J   25261.09050982  .00183656  00000+0  14021-2 0  9996
2 62915  43.0004 308.3131 0002214 289.3339  70.7289 15.70861195 36040
STARLINK-11430 [DTC]    
1 62916U 25027K   25261.48171446  .00200319  00000+0  15280-2 0  9993
2 62916  42.9986 306.0904 0001784 274.2162  85.8502 15.70828116 36107
STARLINK-11560 [DTC]    
1 62917U 25027L   25261.19552597  .00253923  00000+0  19154-2 0  9995
2 62917  42.9997 307.3660 0002925 279.5384  80.5153 15.70927523 36022
STARLINK-11562 [DTC]    
1 62918U 25027M   25261.18490622  .00312414  00000+0  23008-2 0  9999
2 62918  42.9990 307.2803 0002975 241.1340 118.9230 15.71321026 36069
STARLINK-11457 [DTC]    
1 62919U 25027N   25261.55579429  .00145520  00000+0  11165-2 0  9997
2 62919  42.9986 304.8951 0001218 350.4895   9.5949 15.70867955 36089
STARLINK-32921          
1 62920U 25027P   25261.78740593  .00025707  00000+0  93919-3 0  9998
2 62920  43.0053  19.5513 0001931 275.7707  84.2924 15.27624159 35255
STARLINK-32917          
1 62921U 25027Q   25261.34384282  .00021926  00000+0  80322-3 0  9993
2 62921  43.0053  22.2394 0002240 288.6105  71.4503 15.27608684 35181
STARLINK-32916          
1 62922U 25027R   25261.39895646  .00030834  00000+0  11245-2 0  9995
2 62922  43.0052  21.7886 0001903 268.6288  91.4346 15.27604865 35191
STARLINK-32905          
1 62923U 25027S   25261.35541351  .00022829  00000+0  83538-3 0  9993
2 62923  43.0036  22.3297 0001036 187.2142 172.8695 15.27626750 35186
STARLINK-32871          
1 62924U 25027T   25261.33999283  .00022519  00000+0  82442-3 0  9992
2 62924  43.0054  22.2069 0004553 290.6930  69.3433 15.27610795 35186
STARLINK-32920          
1 62925U 25027U   25261.40151793  .00027229  00000+0  99423-3 0  9997
2 62925  42.9988  21.7979 0001907 191.5157 168.5651 15.27616555 35190
STARLINK-32922          
1 62926U 25027V   25261.35155285  .00028895  00000+0  10538-2 0  9991
2 62926  42.9988  22.2868 0002672 143.0081 217.0955 15.27628048 35188
STARLINK-32891          
1 62927U 25027W   25261.35798017  .00023384  00000+0  85577-3 0  9992
2 62927  42.9950  22.3428 0000105 359.9213   0.1639 15.27611553 35302
STARLINK-32728          
1 62948U 25029A   25261.40871362  .00028597  00000+0  97234-3 0  9992
2 62948  53.1590 310.3427 0000984  96.5341 263.5771 15.30252549 35019
